start=new Date('2021-12-14T00:00:00.000Z').valueOf();
sats=[{"INCLINATION":"53.0616","APOAPSIS":"548.270","PERIAPSIS":"546.191","CLASSIFICATION_TYPE":"U","SITE":"AFETR","ELEMENT_SET_NO":"999","TIME_SYSTEM":"UTC","GP_ID":"191659855","OBJECT_ID":"2021-038K","TLE_LINE1":"1 48362U 21038K   21347.71943493  .00000988  00000-0  85242-4 0  9994","COUNTRY_CODE":"US","EPOCH":"2021-12-13T17:15:59.177952","MEAN_MOTION_DOT":"0.00000988","ECCENTRICITY":"0.00015010","PERIOD":"95.592","BSTAR":"0.00008524200000","MEAN_MOTION":"15.06394613","TLE_LINE2":"2 48362  53.0616 106.2087 0001501  91.7283 268.3878 15.06394613 33867","OBJECT_TYPE":"PAYLOAD","REV_AT_EPOCH":"3386","RCS_SIZE":"LARGE","OBJECT_NAME":"STARLINK-2578","MEAN_MOTION_DDOT":"0.0000000000000","MEAN_ELEMENT_THEORY":"SGP4","MEAN_ANOMALY":"268.3878","ARG_OF_PERICENTER":"91.7283","RA_OF_ASC_NODE":"106.2087","EPHEMERIS_TYPE":"0","CENTER_NAME":"EARTH","NORAD_CAT_ID":"48362","DECAY_DATE":null,"LAUNCH_DATE":"2021-05-04","REF_FRAME":"TEME","SEMIMAJOR_AXIS":"6925.365","FILE":"3239585"},{"MEAN_ELEMENT_THEORY":"SGP4","MEAN_ANOMALY":"273.3337","MEAN_MOTION_DDOT":"0.0000000000000","OBJECT_NAME":"STARLINK-2626","RA_OF_ASC_NODE":"101.1464","ARG_OF_PERICENTER":"86.7795","EPHEMERIS_TYPE":"0","BSTAR":"0.00005158500000","RCS_SIZE":"LARGE","REV_AT_EPOCH":"3393","MEAN_MOTION":"15.06388813","TLE_LINE2":"2 48363  53.0556 101.1464 0001253  86.7795 273.3337 15.06388813 33939","OBJECT_TYPE":"PAYLOAD","SEMIMAJOR_AXIS":"6925.383","LAUNCH_DATE":"2021-05-04","REF_FRAME":"TEME","FILE":"3239585","NORAD_CAT_ID":"48363","CENTER_NAME":"EARTH","DECAY_DATE":null,"PERIAPSIS":"546.380","APOAPSIS":"548.116","CLASSIFICATION_TYPE":"U","INCLINATION":"53.0556","SITE":"AFETR","EPOCH":"2021-12-13T17:41:53.950272","MEAN_MOTION_DOT":"0.00000487","PERIOD":"95.593","ECCENTRICITY":"0.00012530","ELEMENT_SET_NO":"999","TLE_LINE1":"1 48363U 21038L   21347.73742998  .00000487  00000-0  51585-4 0  9991","COUNTRY_CODE":"US","TIME_SYSTEM":"UTC","GP_ID":"191660106","OBJECT_ID":"2021-038L"},{"EPHEMERIS_TYPE":"0","RA_OF_ASC_NODE":"101.7653","ARG_OF_PERICENTER":"98.2641","MEAN_MOTION_DDOT":"0.0000000000000","OBJECT_NAME":"STARLINK-2611","MEAN_ELEMENT_THEORY":"SGP4","MEAN_ANOMALY":"261.8543","OBJECT_TYPE":"PAYLOAD","TLE_LINE2":"2 48364  53.0562 101.7653 0001719  98.2641 261.8543 15.06394167 33916","MEAN_MOTION":"15.06394167","RCS_SIZE":"LARGE","REV_AT_EPOCH":"3391","BSTAR":"-0.00003608800000","FILE":"3238998","REF_FRAME":"TEME","LAUNCH_DATE":"2021-05-04","SEMIMAJOR_AXIS":"6925.366","DECAY_DATE":null,"CENTER_NAME":"EARTH","NORAD_CAT_ID":"48364","SITE":"AFETR","INCLINATION":"53.0562","CLASSIFICATION_TYPE":"U","PERIAPSIS":"546.041","APOAPSIS":"548.422","ECCENTRICITY":"0.00017190","PERIOD":"95.593","MEAN_MOTION_DOT":"-0.00000819","EPOCH":"2021-12-13T14:24:08.443872","GP_ID":"191625241","OBJECT_ID":"2021-038M","TIME_SYSTEM":"UTC","COUNTRY_CODE":"US","TLE_LINE1":"1 48364U 21038M   21347.60009773 -.00000819  00000-0 -36088-4 0  9997","ELEMENT_SET_NO":"999"},{"COUNTRY_CODE":"US","TLE_LINE1":"1 48365U 21038N   21347.57892541 -.00000687  00000-0 -27245-4 0  9995","OBJECT_ID":"2021-038N","GP_ID":"191625491","TIME_SYSTEM":"UTC","ELEMENT_SET_NO":"999","PERIOD":"95.592","ECCENTRICITY":"0.00013990","MEAN_MOTION_DOT":"-0.00000687","EPOCH":"2021-12-13T13:53:39.155424","SITE":"AFETR","CLASSIFICATION_TYPE":"U","PERIAPSIS":"546.251","APOAPSIS":"548.188","INCLINATION":"53.0568","DECAY_DATE":null,"NORAD_CAT_ID":"48365","CENTER_NAME":"EARTH","FILE":"3238998","SEMIMAJOR_AXIS":"6925.354","REF_FRAME":"TEME","LAUNCH_DATE":"2021-05-04","REV_AT_EPOCH":"3391","RCS_SIZE":"LARGE","OBJECT_TYPE":"PAYLOAD","TLE_LINE2":"2 48365  53.0568 101.8688 0001399  96.8713 263.2435 15.06398062 33914","MEAN_MOTION":"15.06398062","BSTAR":"-0.00002724500000","EPHEMERIS_TYPE":"0","ARG_OF_PERICENTER":"96.8713","RA_OF_ASC_NODE":"101.8688","MEAN_ELEMENT_THEORY":"SGP4","MEAN_ANOMALY":"263.2435","MEAN_MOTION_DDOT":"0.0000000000000","OBJECT_NAME":"STARLINK-2608"},{"EPOCH":"2021-12-13T16:46:49.163232","MEAN_MOTION_DOT":"-0.00000849","ECCENTRICITY":"0.00011260","PERIOD":"95.593","ELEMENT_SET_NO":"999","TIME_SYSTEM":"UTC","OBJECT_ID":"2021-038P","GP_ID":"191659356","TLE_LINE1":"1 48366U 21038P   21347.69918013 -.00000849  00000-0 -38121-4 0  9997","COUNTRY_CODE":"US","INCLINATION":"53.0551","PERIAPSIS":"546.453","APOAPSIS":"548.013","CLASSIFICATION_TYPE":"U","SITE":"AFETR","LAUNCH_DATE":"2021-05-04","REF_FRAME":"TEME","SEMIMAJOR_AXIS":"6925.368","FILE":"3239585","CENTER_NAME":"EARTH","NORAD_CAT_ID":"48366","DECAY_DATE":null,"MEAN_MOTION_DDOT":"0.0000000000000","OBJECT_NAME":"STARLINK-2631","MEAN_ANOMALY":"264.1013","MEAN_ELEMENT_THEORY":"SGP4","RA_OF_ASC_NODE":"96.3182","ARG_OF_PERICENTER":"96.0104","EPHEMERIS_TYPE":"0","BSTAR":"-0.00003812100000","MEAN_MOTION":"15.06393734","OBJECT_TYPE":"PAYLOAD","TLE_LINE2":"2 48366  53.0551  96.3182 0001126  96.0104 264.1013 15.06393734 33999","REV_AT_EPOCH":"3399","RCS_SIZE":"MEDIUM"},{"BSTAR":"-0.00002897700000","MEAN_MOTION":"15.06392162","TLE_LINE2":"2 48367  53.0572  95.4579 0001268 100.4012 259.7120 15.06392162 34026","OBJECT_TYPE":"PAYLOAD","REV_AT_EPOCH":"3402","RCS_SIZE":"LARGE","MEAN_MOTION_DDOT":"0.0000000000000","OBJECT_NAME":"STARLINK-2643","MEAN_ANOMALY":"259.7120","MEAN_ELEMENT_THEORY":"SGP4","RA_OF_ASC_NODE":"95.4579","ARG_OF_PERICENTER":"100.4012","EPHEMERIS_TYPE":"0","CENTER_NAME":"EARTH","NORAD_CAT_ID":"48367","DECAY_DATE":null,"LAUNCH_DATE":"2021-05-04","REF_FRAME":"TEME","SEMIMAJOR_AXIS":"6925.373","FILE":"3239585","INCLINATION":"53.0572","PERIAPSIS":"546.359","APOAPSIS":"548.116","CLASSIFICATION_TYPE":"U","SITE":"AFETR","ELEMENT_SET_NO":"999","TIME_SYSTEM":"UTC","OBJECT_ID":"2021-038Q","GP_ID":"191660606","TLE_LINE1":"1 48367U 21038Q   21347.89453535 -.00000713  00000-0 -28977-4 0  9991","COUNTRY_CODE":"US","EPOCH":"2021-12-13T21:28:07.854240","MEAN_MOTION_DOT":"-0.00000713","ECCENTRICITY":"0.00012680","PERIOD":"95.593"},{"EPHEMERIS_TYPE":"0","ARG_OF_PERICENTER":"96.2627","RA_OF_ASC_NODE":"95.9560","MEAN_ANOMALY":"263.8498","MEAN_ELEMENT_THEORY":"SGP4","OBJECT_NAME":"STARLINK-2623","MEAN_MOTION_DDOT":"0.0000000000000","REV_AT_EPOCH":"3401","RCS_SIZE":"LARGE","TLE_LINE2":"2 48368  53.0553  95.9560 0001196  96.2627 263.8498 15.06397091 34014","OBJECT_TYPE":"PAYLOAD","MEAN_MOTION":"15.06397091","BSTAR":"-0.00002639600000","FILE":"3239585","SEMIMAJOR_AXIS":"6925.357","REF_FRAME":"TEME","LAUNCH_DATE":"2021-05-04","DECAY_DATE":null,"NORAD_CAT_ID":"48368","CENTER_NAME":"EARTH","SITE":"AFETR","CLASSIFICATION_TYPE":"U","PERIAPSIS":"546.394","APOAPSIS":"548.051","INCLINATION":"53.0553","PERIOD":"95.592","ECCENTRICITY":"0.00011960","MEAN_MOTION_DOT":"-0.00000674","EPOCH":"2021-12-13T18:42:13.520160","COUNTRY_CODE":"US","TLE_LINE1":"1 48368U 21038R   21347.77932315 -.00000674  00000-0 -26396-4 0  9996","OBJECT_ID":"2021-038R","GP_ID":"191660359","TIME_SYSTEM":"UTC","ELEMENT_SET_NO":"999"},{"BSTAR":"-0.00003256000000","RCS_SIZE":"LARGE","REV_AT_EPOCH":"3402","MEAN_MOTION":"15.06389603","OBJECT_TYPE":"PAYLOAD","TLE_LINE2":"2 48369  53.0543  95.4582 0001445  95.1131 265.0023 15.06389603 34027","MEAN_ELEMENT_THEORY":"SGP4","MEAN_ANOMALY":"265.0023","MEAN_MOTION_DDOT":"0.0000000000000","OBJECT_NAME":"STARLINK-2641","ARG_OF_PERICENTER":"95.1131","RA_OF_ASC_NODE":"95.4582","EPHEMERIS_TYPE":"0","NORAD_CAT_ID":"48369","CENTER_NAME":"EARTH","DECAY_DATE":null,"SEMIMAJOR_AXIS":"6925.380","LAUNCH_DATE":"2021-05-04","REF_FRAME":"TEME","FILE":"3239585","PERIAPSIS":"546.245","APOAPSIS":"548.246","CLASSIFICATION_TYPE":"U","INCLINATION":"53.0543","SITE":"AFETR","ELEMENT_SET_NO":"999","TLE_LINE1":"1 48369U 21038S   21347.89085033 -.00000766  00000-0 -32560-4 0  9998","COUNTRY_CODE":"US","TIME_SYSTEM":"UTC","GP_ID":"191659605","OBJECT_ID":"2021-038S","EPOCH":"2021-12-13T21:22:49.468512","MEAN_MOTION_DOT":"-0.00000766","PERIOD":"95.593","ECCENTRICITY":"0.00014450"},{"FILE":"3239585","SEMIMAJOR_AXIS":"6925.354","REF_FRAME":"TEME","LAUNCH_DATE":"2021-05-04","DECAY_DATE":null,"NORAD_CAT_ID":"48370","CENTER_NAME":"EARTH","EPHEMERIS_TYPE":"0","ARG_OF_PERICENTER":"91.5431","RA_OF_ASC_NODE":"95.4763","MEAN_ANOMALY":"268.5727","MEAN_ELEMENT_THEORY":"SGP4","OBJECT_NAME":"STARLINK-2621","MEAN_MOTION_DDOT":"0.0000000000000","RCS_SIZE":"LARGE","REV_AT_EPOCH":"3402","TLE_LINE2":"2 48370  53.0556  95.4763 0001482  91.5431 268.5727 15.06398313 34025","OBJECT_TYPE":"PAYLOAD","MEAN_MOTION":"15.06398313","BSTAR":"-0.00002177700000","PERIOD":"95.592","ECCENTRICITY":"0.00014820","MEAN_MOTION_DOT":"-0.00000606","EPOCH":"2021-12-13T21:17:30.970464","COUNTRY_CODE":"US","TLE_LINE1":"1 48370U 21038T   21347.88716401 -.00000606  00000-0 -21777-4 0  9990","GP_ID":"191659856","OBJECT_ID":"2021-038T","TIME_SYSTEM":"UTC","ELEMENT_SET_NO":"999","SITE":"AFETR","CLASSIFICATION_TYPE":"U","PERIAPSIS":"546.192","APOAPSIS":"548.245","INCLINATION":"53.0556"},{"SEMIMAJOR_AXIS":"6925.363","REF_FRAME":"TEME","LAUNCH_DATE":"2021-05-04","FILE":"3239585","NORAD_CAT_ID":"48371","CENTER_NAME":"EARTH","DECAY_DATE":null,"MEAN_ANOMALY":"269.3285","MEAN_ELEMENT_THEORY":"SGP4","MEAN_MOTION_DDOT":"0.0000000000000","OBJECT_NAME":"STARLINK-2589","EPHEMERIS_TYPE":"0","ARG_OF_PERICENTER":"90.7857","RA_OF_ASC_NODE":"96.3959","BSTAR":"0.00008676100000","REV_AT_EPOCH":"3399","RCS_SIZE":"LARGE","TLE_LINE2":"2 48371  53.0569  96.3959 0001333  90.7857 269.3285 15.06395183 33990","OBJECT_TYPE":"PAYLOAD","MEAN_MOTION":"15.06395183","MEAN_MOTION_DOT":"0.00001011","EPOCH":"2021-12-13T16:25:35.114880","PERIOD":"95.592","ECCENTRICITY":"0.00013330","ELEMENT_SET_NO":"999","COUNTRY_CODE":"US","TLE_LINE1":"1 48371U 21038U   21347.68443420  .00001011  00000-0  86761-4 0  9990","OBJECT_ID":"2021-038U","GP_ID":"191660107","TIME_SYSTEM":"UTC","CLASSIFICATION_TYPE":"U","APOAPSIS":"548.151","PERIAPSIS":"546.305","INCLINATION":"53.0569","SITE":"AFETR"}];
